{"pickup_locations":[{"name":"Aalborg Barf Butik","id":"109430","distance":2.6,"address":{"postcode":"9200","city":"Aalborg SV","address":"Letvadvej 30"},"location":{"latitude":57.010084812916524,"longitude":9.880299429914945},"opening_hours":[{"day":"Mandag","opening_hours":"10:00 - 18:00"},{"day":"Tirsdag","opening_hours":"10:00 - 18:00"},{"day":"Onsdag","opening_hours":"10:00 - 18:00"},{"day":"Torsdag","opening_hours":"10:00 - 18:00"},{"day":"Fredag","opening_hours":"10:00 - 18:00"},{"day":"Lørdag","opening_hours":"10:00 - 15:00"},{"day":"Søndag","opening_hours":"10:00 - 15:00"}]},{"name":"Spar Visse","id":"107200","distance":4.7,"address":{"postcode":"9210","city":"Aalborg SØ","address":"Vissevej 93"},"location":{"latitude":56.99591226443931,"longitude":9.92944508593535},"opening_hours":[{"day":"Mandag","opening_hours":"07:00 - 22:00"},{"day":"Tirsdag","opening_hours":"07:00 - 22:00"},{"day":"Onsdag","opening_hours":"07:00 - 22:00"},{"day":"Torsdag","opening_hours":"07:00 - 22:00"},{"day":"Fredag","opening_hours":"07:00 - 22:00"},{"day":"Lørdag","opening_hours":"07:00 - 22:00"},{"day":"Søndag","opening_hours":"07:00 - 22:00"}]},{"name":"P-Grillen","id":"109328","distance":5.3,"address":{"postcode":"9230","city":"Svenstrup","address":"Hobrovej 751A"},"location":{"latitude":56.97420856941882,"longitude":9.856191407495055},"opening_hours":[{"day":"Mandag","opening_hours":"Lukket"},{"day":"Tirsdag","opening_hours":"11:30 - 20:00"},{"day":"Onsdag","opening_hours":"11:30 - 20:00"},{"day":"Torsdag","opening_hours":"11:30 - 20:00"},{"day":"Fredag","opening_hours":"11:30 - 20:00"},{"day":"Lørdag","opening_hours":"11:30 - 20:00"},{"day":"Søndag","opening_hours":"11:30 - 20:00"}]},{"name":"Gug Anlæg og Planteskole","id":"111046","distance":5.4,"address":{"postcode":"9210","city":"Aalborg SØ","address":"Indkildevej 17"},"location":{"latitude":57.00731080460009,"longitude":9.916326353240999},"opening_hours":[{"day":"Mandag","opening_hours":"09:00 - 17:30"},{"day":"Tirsdag","opening_hours":"09:00 - 17:30"},{"day":"Onsdag","opening_hours":"09:00 - 17:30"},{"day":"Torsdag","opening_hours":"09:00 - 17:30"},{"day":"Fredag","opening_hours":"09:00 - 17:30"},{"day":"Lørdag","opening_hours":"09:00 - 16:00"},{"day":"Søndag","opening_hours":"09:00 - 16:00"}]},{"name":"Min Købmand Godthåb","id":"106156","distance":8.7,"address":{"postcode":"9230","city":"Svenstrup","address":"Ridemandsmøllevej 14"},"location":{"latitude":56.96263425548005,"longitude":9.813561799667205},"opening_hours":[{"day":"Mandag","opening_hours":"07:30 - 20:00"},{"day":"Tirsdag","opening_hours":"07:30 - 20:00"},{"day":"Onsdag","opening_hours":"07:30 - 20:00"},{"day":"Torsdag","opening_hours":"07:30 - 20:00"},{"day":"Fredag","opening_hours":"07:30 - 20:00"},{"day":"Lørdag","opening_hours":"07:30 - 20:00"},{"day":"Søndag","opening_hours":"07:30 - 20:00"}]},{"name":"Spar Gug","id":"107199","distance":7.3,"address":{"postcode":"9210","city":"Aalborg SØ","address":"Nøhr Sørensens Vej 1B"},"location":{"latitude":57.0155909334771,"longitude":9.931352305020075},"opening_hours":[{"day":"Mandag","opening_hours":"07:00 - 22:00"},{"day":"Tirsdag","opening_hours":"07:00 - 22:00"},{"day":"Onsdag","opening_hours":"07:00 - 22:00"},{"day":"Torsdag","opening_hours":"07:00 - 22:00"},{"day":"Fredag","opening_hours":"07:00 - 22:00"},{"day":"Lørdag","opening_hours":"07:00 - 22:00"},{"day":"Søndag","opening_hours":"07:00 - 22:00"}]},{"name":"Silvan Aalborg","id":"109302","distance":6.9,"address":{"postcode":"9000","city":"Aalborg","address":"Håndværkervej 21-23"},"location":{"latitude":57.033785843749484,"longitude":9.927391494483205},"opening_hours":[{"day":"Mandag","opening_hours":"08:00 - 20:00"},{"day":"Tirsdag","opening_hours":"08:00 - 20:00"},{"day":"Onsdag","opening_hours":"08:00 - 20:00"},{"day":"Torsdag","opening_hours":"08:00 - 20:00"},{"day":"Fredag","opening_hours":"08:00 - 20:00"},{"day":"Lørdag","opening_hours":"08:00 - 18:00"},{"day":"Søndag","opening_hours":"08:00 - 18:00"}]},{"name":"Kiosken på Boulevarden","id":"106881","distance":7.5,"address":{"postcode":"9000","city":"Aalborg","address":"Boulevarden 33"},"location":{"latitude":57.04393862005589,"longitude":9.918727830138966},"opening_hours":[{"day":"Mandag","opening_hours":"09:00 - 22:00"},{"day":"Tirsdag","opening_hours":"09:00 - 22:00"},{"day":"Onsdag","opening_hours":"09:00 - 22:00"},{"day":"Torsdag","opening_hours":"09:00 - 22:00"},{"day":"Fredag","opening_hours":"09:00 - 22:00"},{"day":"Lørdag","opening_hours":"09:00 - 22:00"},{"day":"Søndag","opening_hours":"09:00 - 22:00"}]},{"name":"Spar Aalborg","id":"105959","distance":11.1,"address":{"postcode":"9000","city":"Aalborg","address":"Doravej 1"},"location":{"latitude":57.03224357872267,"longitude":9.95567642138726},"opening_hours":[{"day":"Mandag","opening_hours":"08:00 - 21:00"},{"day":"Tirsdag","opening_hours":"08:00 - 21:00"},{"day":"Onsdag","opening_hours":"08:00 - 21:00"},{"day":"Torsdag","opening_hours":"08:00 - 21:00"},{"day":"Fredag","opening_hours":"08:00 - 21:00"},{"day":"Lørdag","opening_hours":"08:00 - 21:00"},{"day":"Søndag","opening_hours":"08:00 - 21:00"}]},{"name":"Netkiosken.dk","id":"107559","distance":7.8,"address":{"postcode":"9000","city":"Aalborg","address":"Kayerødsgade 6"},"location":{"latitude":57.04474392166345,"longitude":9.924054957445868},"opening_hours":[{"day":"Mandag","opening_hours":"09:00 - 19:30"},{"day":"Tirsdag","opening_hours":"09:00 - 19:30"},{"day":"Onsdag","opening_hours":"09:00 - 19:30"},{"day":"Torsdag","opening_hours":"09:00 - 19:30"},{"day":"Fredag","opening_hours":"09:00 - 19:30"},{"day":"Lørdag","opening_hours":"09:00 - 17:30"},{"day":"Søndag","opening_hours":"09:00 - 17:30"}]}],"input":{"address":"Snedronningens Vej 13","postcode":"9230"}}